start=new Date('2022-05-18T00:00:00.000Z').valueOf();
sats=[{"TLE_LINE1":"1 49733U 21115K   22137.58335648 -.00029064  00000-0 -18143-2 0  9995","EPOCH":"2022-05-17T14:00:01.999872","DECAY_DATE":null,"OBJECT_TYPE":"PAYLOAD","REV_AT_EPOCH":"2634","TLE_LINE2":"2 49733  53.2139 288.5333 0002080  32.7997 164.4287 15.08860493 26341","EPHEMERIS_TYPE":"0","REF_FRAME":"TEME","ARG_OF_PERICENTER":"32.7997","SITE":"AFETR","PERIAPSIS":"538.244","MEAN_ANOMALY":"164.4287","MEAN_MOTION":"15.08860493","SEMIMAJOR_AXIS":"6917.818","RA_OF_ASC_NODE":"288.5333","GP_ID":"203756627","CLASSIFICATION_TYPE":"U","OBJECT_NAME":"STARLINK-3252","FILE":"3449931","CENTER_NAME":"EARTH","APOAPSIS":"541.122","TIME_SYSTEM":"UTC","INCLINATION":"53.2139","OBJECT_ID":"2021-115K","MEAN_ELEMENT_THEORY":"SGP4","BSTAR":"-0.00181430000000","MEAN_MOTION_DDOT":"0.0000000000000","ELEMENT_SET_NO":"999","MEAN_MOTION_DOT":"-0.00029064","COUNTRY_CODE":"US","ECCENTRICITY":"0.00020800","RCS_SIZE":"LARGE","NORAD_CAT_ID":"49733","PERIOD":"95.436","LAUNCH_DATE":"2021-12-02"},{"TIME_SYSTEM":"UTC","INCLINATION":"53.2182","COUNTRY_CODE":"US","ECCENTRICITY":"0.00021770","RCS_SIZE":"LARGE","PERIOD":"95.438","NORAD_CAT_ID":"49734","LAUNCH_DATE":"2021-12-02","MEAN_ELEMENT_THEORY":"SGP4","OBJECT_ID":"2021-115L","MEAN_MOTION_DDOT":"0.0000000000000","BSTAR":"0.00117700000000","ELEMENT_SET_NO":"999","MEAN_MOTION_DOT":"0.00018492","OBJECT_TYPE":"PAYLOAD","REV_AT_EPOCH":"2652","TLE_LINE2":"2 49734  53.2182 277.4035 0002177  30.2417 340.6452 15.08836961 26528","EPHEMERIS_TYPE":"0","REF_FRAME":"TEME","SITE":"AFETR","ARG_OF_PERICENTER":"30.2417","TLE_LINE1":"1 49734U 21115L   22137.83334491  .00018492  00000-0  11770-2 0  9999","EPOCH":"2022-05-17T20:00:01.000224","DECAY_DATE":null,"GP_ID":"203792632","OBJECT_NAME":"STARLINK-3238","CLASSIFICATION_TYPE":"U","FILE":"3450442","APOAPSIS":"541.261","CENTER_NAME":"EARTH","MEAN_ANOMALY":"340.6452","PERIAPSIS":"538.249","MEAN_MOTION":"15.08836961","SEMIMAJOR_AXIS":"6917.890","RA_OF_ASC_NODE":"277.4035"},{"FILE":"3450017","OBJECT_NAME":"STARLINK-3113","GP_ID":"203759000","CLASSIFICATION_TYPE":"U","APOAPSIS":"541.053","CENTER_NAME":"EARTH","MEAN_MOTION":"15.08877135","PERIAPSIS":"538.211","MEAN_ANOMALY":"145.1196","RA_OF_ASC_NODE":"288.5276","SEMIMAJOR_AXIS":"6917.767","OBJECT_TYPE":"PAYLOAD","TLE_LINE2":"2 49735  53.2141 288.5276 0002054  32.0974 145.1196 15.08877135 26347","REV_AT_EPOCH":"2634","REF_FRAME":"TEME","EPHEMERIS_TYPE":"0","ARG_OF_PERICENTER":"32.0974","SITE":"AFETR","TLE_LINE1":"1 49735U 21115M   22137.58335648 -.00059236  00000-0 -37307-2 0  9994","DECAY_DATE":null,"EPOCH":"2022-05-17T14:00:01.999872","ECCENTRICITY":"0.00020540","COUNTRY_CODE":"US","LAUNCH_DATE":"2021-12-02","PERIOD":"95.435","RCS_SIZE":"LARGE","NORAD_CAT_ID":"49735","MEAN_ELEMENT_THEORY":"SGP4","OBJECT_ID":"2021-115M","ELEMENT_SET_NO":"999","MEAN_MOTION_DDOT":"0.0000000000000","BSTAR":"-0.00373070000000","MEAN_MOTION_DOT":"-0.00059236","INCLINATION":"53.2141","TIME_SYSTEM":"UTC"},{"RCS_SIZE":"LARGE","PERIOD":"95.436","NORAD_CAT_ID":"49736","LAUNCH_DATE":"2021-12-02","COUNTRY_CODE":"US","ECCENTRICITY":"0.00023020","MEAN_MOTION_DOT":"-0.00031730","MEAN_MOTION_DDOT":"0.0000000000000","BSTAR":"-0.00198300000000","ELEMENT_SET_NO":"999","MEAN_ELEMENT_THEORY":"SGP4","OBJECT_ID":"2021-115N","INCLINATION":"53.2177","TIME_SYSTEM":"UTC","APOAPSIS":"541.270","CENTER_NAME":"EARTH","CLASSIFICATION_TYPE":"U","GP_ID":"203785246","OBJECT_NAME":"STARLINK-3148","FILE":"3450137","SEMIMAJOR_AXIS":"6917.813","RA_OF_ASC_NODE":"278.5231","PERIAPSIS":"538.085","MEAN_ANOMALY":"24.3656","MEAN_MOTION":"15.08862149","ARG_OF_PERICENTER":"27.8514","SITE":"AFETR","EPHEMERIS_TYPE":"0","REF_FRAME":"TEME","REV_AT_EPOCH":"130","TLE_LINE2":"2 49736  53.2177 278.5231 0002302  27.8514  24.3656 15.08862149  1302","OBJECT_TYPE":"PAYLOAD","EPOCH":"2022-05-17T14:00:01.999872","DECAY_DATE":null,"TLE_LINE1":"1 49736U 21115N   22137.58335648 -.00031730  00000-0 -19830-2 0  9995"},{"APOAPSIS":"541.312","CENTER_NAME":"EARTH","FILE":"3450523","GP_ID":"203794662","CLASSIFICATION_TYPE":"U","OBJECT_NAME":"STARLINK-3225","RA_OF_ASC_NODE":"277.4095","SEMIMAJOR_AXIS":"6917.928","MEAN_MOTION":"15.08824425","PERIAPSIS":"538.274","MEAN_ANOMALY":"317.2308","REF_FRAME":"TEME","EPHEMERIS_TYPE":"0","SITE":"AFETR","ARG_OF_PERICENTER":"33.5988","OBJECT_TYPE":"PAYLOAD","TLE_LINE2":"2 49737  53.2171 277.4095 0002196  33.5988 317.2308 15.08824425 26527","REV_AT_EPOCH":"2652","DECAY_DATE":null,"EPOCH":"2022-05-17T20:00:01.000224","TLE_LINE1":"1 49737U 21115P   22137.83334491  .00048324  00000-0  30349-2 0  9992","ECCENTRICITY":"0.00021960","COUNTRY_CODE":"US","LAUNCH_DATE":"2021-12-02","NORAD_CAT_ID":"49737","RCS_SIZE":"LARGE","PERIOD":"95.439","ELEMENT_SET_NO":"999","MEAN_MOTION_DDOT":"0.0000000000000","BSTAR":"0.00303490000000","MEAN_MOTION_DOT":"0.00048324","MEAN_ELEMENT_THEORY":"SGP4","OBJECT_ID":"2021-115P","TIME_SYSTEM":"UTC","INCLINATION":"53.2171"},{"MEAN_ELEMENT_THEORY":"SGP4","OBJECT_ID":"2021-115Q","ELEMENT_SET_NO":"999","MEAN_MOTION_DDOT":"0.0000000000000","BSTAR":"0.00193720000000","MEAN_MOTION_DOT":"0.00030667","ECCENTRICITY":"0.00023870","COUNTRY_CODE":"US","LAUNCH_DATE":"2021-12-02","RCS_SIZE":"LARGE","NORAD_CAT_ID":"49738","PERIOD":"95.438","TIME_SYSTEM":"UTC","INCLINATION":"53.2179","MEAN_MOTION":"15.08826742","PERIAPSIS":"538.135","MEAN_ANOMALY":"281.4126","SEMIMAJOR_AXIS":"6917.921","RA_OF_ASC_NODE":"277.4133","FILE":"3450523","GP_ID":"203795162","OBJECT_NAME":"STARLINK-3143","CLASSIFICATION_TYPE":"U","CENTER_NAME":"EARTH","APOAPSIS":"541.437","TLE_LINE1":"1 49738U 21115Q   22137.83334491  .00030667  00000-0  19372-2 0  9997","DECAY_DATE":null,"EPOCH":"2022-05-17T20:00:01.000224","OBJECT_TYPE":"PAYLOAD","TLE_LINE2":"2 49738  53.2179 277.4133 0002387  29.4257 281.4126 15.08826742 26528","REV_AT_EPOCH":"2652","REF_FRAME":"TEME","EPHEMERIS_TYPE":"0","ARG_OF_PERICENTER":"29.4257","SITE":"AFETR"},{"OBJECT_ID":"2021-115R","MEAN_ELEMENT_THEORY":"SGP4","MEAN_MOTION_DOT":"0.00021515","BSTAR":"0.00136610000000","MEAN_MOTION_DDOT":"0.0000000000000","ELEMENT_SET_NO":"999","RCS_SIZE":"LARGE","PERIOD":"95.438","NORAD_CAT_ID":"49739","LAUNCH_DATE":"2021-12-02","COUNTRY_CODE":"US","ECCENTRICITY":"0.00022900","INCLINATION":"53.2139","TIME_SYSTEM":"UTC","PERIAPSIS":"538.189","MEAN_ANOMALY":"26.8580","MEAN_MOTION":"15.08830865","SEMIMAJOR_AXIS":"6917.908","RA_OF_ASC_NODE":"287.4069","GP_ID":"203795164","CLASSIFICATION_TYPE":"U","OBJECT_NAME":"STARLINK-3155","FILE":"3450523","CENTER_NAME":"EARTH","APOAPSIS":"541.358","TLE_LINE1":"1 49739U 21115R   22137.83334491  .00021515  00000-0  13661-2 0  9995","EPOCH":"2022-05-17T20:00:01.000224","DECAY_DATE":null,"REV_AT_EPOCH":"2637","TLE_LINE2":"2 49739  53.2139 287.4069 0002290  29.0242  26.8580 15.08830865 26376","OBJECT_TYPE":"PAYLOAD","SITE":"AFETR","ARG_OF_PERICENTER":"29.0242","EPHEMERIS_TYPE":"0","REF_FRAME":"TEME"},{"FILE":"3450543","OBJECT_NAME":"STARLINK-3226","GP_ID":"203795325","CLASSIFICATION_TYPE":"U","APOAPSIS":"541.467","CENTER_NAME":"EARTH","MEAN_MOTION":"15.08832921","PERIAPSIS":"538.067","MEAN_ANOMALY":"225.0522","SEMIMAJOR_AXIS":"6917.902","RA_OF_ASC_NODE":"277.4178","TLE_LINE2":"2 49740  53.2153 277.4178 0002457  25.7957 225.0522 15.08832921 26526","REV_AT_EPOCH":"2652","OBJECT_TYPE":"PAYLOAD","ARG_OF_PERICENTER":"25.7957","SITE":"AFETR","REF_FRAME":"TEME","EPHEMERIS_TYPE":"0","TLE_LINE1":"1 49740U 21115S   22137.83334491  .00028316  00000-0  17904-2 0  9997","DECAY_DATE":null,"EPOCH":"2022-05-17T20:00:01.000224","LAUNCH_DATE":"2021-12-02","RCS_SIZE":"LARGE","NORAD_CAT_ID":"49740","PERIOD":"95.438","ECCENTRICITY":"0.00024570","COUNTRY_CODE":"US","OBJECT_ID":"2021-115S","MEAN_ELEMENT_THEORY":"SGP4","MEAN_MOTION_DOT":"0.00028316","ELEMENT_SET_NO":"999","BSTAR":"0.00179040000000","MEAN_MOTION_DDOT":"0.0000000000000","TIME_SYSTEM":"UTC","INCLINATION":"53.2153"},{"MEAN_MOTION_DOT":"-0.00037448","ELEMENT_SET_NO":"999","BSTAR":"-0.00234540000000","MEAN_MOTION_DDOT":"0.0000000000000","OBJECT_ID":"2021-115T","MEAN_ELEMENT_THEORY":"SGP4","LAUNCH_DATE":"2021-12-02","RCS_SIZE":"LARGE","NORAD_CAT_ID":"49741","PERIOD":"95.436","ECCENTRICITY":"0.00019880","COUNTRY_CODE":"US","INCLINATION":"53.2147","TIME_SYSTEM":"UTC","RA_OF_ASC_NODE":"278.5394","SEMIMAJOR_AXIS":"6917.805","MEAN_MOTION":"15.08864654","MEAN_ANOMALY":"333.2171","PERIAPSIS":"538.295","APOAPSIS":"541.045","CENTER_NAME":"EARTH","FILE":"3450137","GP_ID":"203785497","CLASSIFICATION_TYPE":"U","OBJECT_NAME":"STARLINK-3244","DECAY_DATE":null,"EPOCH":"2022-05-17T14:00:01.999872","TLE_LINE1":"1 49741U 21115T   22137.58335648 -.00037448  00000-0 -23454-2 0  9990","ARG_OF_PERICENTER":"39.0175","SITE":"AFETR","REF_FRAME":"TEME","EPHEMERIS_TYPE":"0","TLE_LINE2":"2 49741  53.2147 278.5394 0001988  39.0175 333.2171 15.08864654  1309","REV_AT_EPOCH":"130","OBJECT_TYPE":"PAYLOAD"},{"TIME_SYSTEM":"UTC","INCLINATION":"53.2157","ELEMENT_SET_NO":"999","BSTAR":"0.00064119000000","MEAN_MOTION_DDOT":"0.0000000000000","MEAN_MOTION_DOT":"0.00009930","MEAN_ELEMENT_THEORY":"SGP4","OBJECT_ID":"2021-115U","ECCENTRICITY":"0.00024790","COUNTRY_CODE":"US","LAUNCH_DATE":"2021-12-02","RCS_SIZE":"LARGE","PERIOD":"95.438","NORAD_CAT_ID":"49742","DECAY_DATE":null,"EPOCH":"2022-05-17T20:00:01.000224","TLE_LINE1":"1 49742U 21115U   22137.83334491  .00009930  00000-0  64119-3 0  9991","REF_FRAME":"TEME","EPHEMERIS_TYPE":"0","ARG_OF_PERICENTER":"27.2220","SITE":"AFETR","OBJECT_TYPE":"PAYLOAD","TLE_LINE2":"2 49742  53.2157 277.4204 0002479  27.2220 183.6761 15.08835660 26512","REV_AT_EPOCH":"2651","RA_OF_ASC_NODE":"277.4204","SEMIMAJOR_AXIS":"6917.894","MEAN_MOTION":"15.08835660","MEAN_ANOMALY":"183.6761","PERIAPSIS":"538.044","CENTER_NAME":"EARTH","APOAPSIS":"541.474","FILE":"3450551","GP_ID":"203795461","CLASSIFICATION_TYPE":"U","OBJECT_NAME":"STARLINK-3202"}];
